USA 159 (DSP 21)        
1 26880U 01033A   20358.31388104 -.00000291  00000-0  00000-0 0  9990
2 26880  10.9401  29.1446 0001134 288.3889 198.3061  1.00263459 12890
INTELSAT 902 (IS-902)   
1 26900U 01039A   20358.40407262 -.00000270  00000-0  00000-0 0  9993
2 26900   1.0717  94.7662 0003130 186.2854 266.7146  1.00272414 70640
USA 164 (MILSTAR-2 3)   
1 27168U 02001A   20358.27426531  .00000107  00000-0  00000-0 0  9993
2 27168   8.9563  31.1702 0002485 254.2617 284.5137  1.00270941 12880
ECHOSTAR 7              
1 27378U 02006A   20358.44657389  .00000013  00000-0  00000-0 0  9993
2 27378   0.0203 304.6183 0001779 301.4352 248.3469  1.00270083 30539
INTELSAT 904 (IS-904)   
1 27380U 02007A   20358.40817271 -.00000202  00000-0  00000-0 0  9992
2 27380   1.9102  91.4765 0003377 185.5754 292.7879  1.00271824 31690
TDRS 9                  
1 27389U 02011A   20358.39239340 -.00000279  00000-0  00000-0 0  9993
2 27389   7.8835  65.7103 0026829 276.1295 189.6237  1.00272307 70378
JCSAT-2A                
1 27399U 02015A   20358.44271819 -.00000243  00000-0  00000-0 0  9992
2 27399   3.3472  83.7753 0002063  36.5546 275.1408  1.00276540 68820
ASTRA 3A                
1 27400U 02015B   20358.34297417 -.00000195  00000-0  00000-0 0  9992
2 27400   6.2949  62.4623 0001644 208.6745 217.8682  1.00274591 68653
NSS-7                   
1 27414U 02019A   20358.37966300 -.00000148  00000-0  00000-0 0  9996
2 27414   4.6593  75.4312 0002447 208.9331 284.6799  1.00271566 68492
DIRECTV 5 (TEMPO 1)     
1 27426U 02023A   20358.51817260 -.00000043  00000-0  00000-0 0  9994
2 27426   0.0173 336.5207 0003257 303.6820 248.7309  1.00273439 68173
INTELSAT 905 (IS-905)   
1 27438U 02027A   20358.40913230 -.00000173  00000-0  00000-0 0  9997
2 27438   1.7311  92.3207 0002695 178.5365 304.3396  1.00270951 31297
GALAXY 3C (G-3C)        
1 27445U 02030A   20358.29827189 -.00000139  00000-0  00000-0 0  9995
2 27445   0.0195 316.6464 0002180   8.2331 139.7438  1.00270546 26432
EUTELSAT 5 WEST A       
1 27460U 02035A   20358.34126263 -.00000030  00000-0  00000-0 0  9998
2 27460   1.0095  95.0889 0006086 179.6633 295.4279  1.00272254 67543
METEOSAT-8 (MSG-1)      
1 27509U 02040B   20358.27063351  .00000144  00000-0  00000-0 0  9993
2 27509   7.0593  53.2941 0001152 173.5853   4.2894  1.00267084 67181
INTELSAT 906 (IS-906)   
1 27513U 02041A   20358.42684125  .00000026  00000-0  00000-0 0  9993
2 27513   0.7364  96.9391 0003367 187.0942  26.1961  1.00271799 66954
HISPASAT 30W-4          
1 27528U 02044A   20358.42658340  .00000129  00000-0  00000-0 0  9996
2 27528   1.5256  92.1893 0004171 186.3811 184.3837  1.00273260 22906
TDRS 10                 
1 27566U 02055A   20358.47510730  .00000098  00000-0  00000-0 0  9990
2 27566   7.2356  52.7415 0008805 274.2906 125.2557  1.00271502 66160
NSS-6                   
1 27603U 02057A   20358.48044781  .00000121  00000-0  00000-0 0  9990
2 27603   0.2734  97.8421 0004186 172.1392 185.9364  1.00273691 65973
NIMIQ 2                 
1 27632U 02062A   20358.32407709 -.00000167  00000-0  00000-0 0  9995
2 27632   4.7728  74.6105 0005494 277.0472 126.2359  1.00270899 24116
USA 167                 
1 27691U 03008A   20358.34323657  .00000063  00000-0  00000-0 0  9996
2 27691   7.0017  57.8415 0001670 337.5771  50.3458  1.00273628 12882
USA 169 (MILSTAR-2 4)   
1 27711U 03012A   20358.44960187 -.00000187  00000-0  00000-0 0  9998
2 27711   9.3294  43.6401 0003115 225.9027 136.8919  1.00271634 12882
GALAXY 12 (G-12)        
1 27715U 03013B   20357.95759831  .00000068  00000-0  00000-0 0  9997
2 27715   1.9448  90.8936 0001901 183.1435  33.6587  1.00273228 32014
ASIASAT 4               
1 27718U 03014A   20358.32966061  .00000165  00000-0  00000-0 0  9996
2 27718   0.0140 306.8663 0001756 353.0404 309.2812  1.00272405 25229
HELLAS-SAT 2            
1 27811U 03020A   20358.39508729 -.00000139  00000-0  00000-0 0  9999
2 27811   2.3647  90.2399 0002958 191.2968 217.8813  1.00270858 22774
THURAYA-2               
1 27825U 03026A   20358.27923775  .00000136  00000-0  00000-0 0  9995
2 27825   6.1135  33.4840 0004838 237.7962 325.5122  1.00270828 64270
OPTUS C1                
1 27831U 03028B   20358.45214559 -.00000138  00000-0  00000-0 0  9990
2 27831   1.8719  92.2966 0005917 174.8188 143.8342  1.00271891 32988
GALAXY 23 (G-23)        
1 27854U 03034A   20358.42674560  .00000026  00000-0  00000-0 0  9996
2 27854   0.0429 277.6316 0003061 357.7950 209.6363  1.00270864 63670
USA 170                 
1 27875U 03040A   20358.31950519 -.00000264  00000-0  00000-0 0  9990
2 27875   6.2676  63.3111 0001880 179.6607 281.8570  1.00278551 12896
GALAXY 13 (HORIZONS 1)  
1 27954U 03044A   20358.55035050  .00000062  00000-0  00000-0 0  9997
2 27954   0.0245 323.0831 0002191 219.0556 341.4770  1.00264722 26504
YAMAL 202               
1 28089U 03053A   20358.62696308 -.00000067  00000-0  00000-0 0  9990
2 28089   1.3035  93.5178 0002751 157.0356 231.2214  1.00271481 62610
UFO 11 (USA 174)        
1 28117U 03057A   20358.20257652 -.00000093  00000-0  00000-0 0  9994
2 28117   6.2775  37.6719 0003347 290.0457 272.7923  1.00271177 62371
USA 176 (DSP 22)        
1 28158U 04004A   20358.07257546 -.00000211  00000-0  00000-0 0  9991
2 28158   9.4013  38.2190 0000978 252.6524 274.6308  1.00269454 12853
ABS-4 (MOBISAT-1)       
1 28184U 04007A   20358.23660470  .00000051  00000-0  00000-0 0  9996
2 28184   0.9849  94.8516 0005429 177.2546 326.3575  1.00275375 32264
EUTELSAT 7A             
1 28187U 04008A   20358.51507878 -.00000266  00000-0  00000-0 0  9992
2 28187   0.7802  91.0020 0005923 170.6273 330.0064  0.99854363 61282
DIRECTV 7S              
1 28238U 04016A   20358.44657345  .00000014  00000-0  00000-0 0  9995
2 28238   0.0176  57.5504 0002566 287.3030 149.2825  1.00273377 60992
AMC-11 (GE-11)          
1 28252U 04017A   20358.41955417  .00000082  00000-0  00000-0 0  9995
2 28252   0.0152  20.1498 0002818 255.5322 196.7745  1.00271204 60817
INTELSAT 10-02          
1 28358U 04022A   20358.47618806  .00000002  00000-0  00000-0 0  9994
2 28358   0.0463 270.9456 0002691   5.5342 346.4458  1.00271079 60536
ANIK F2                 
1 28378U 04027A   20358.16115391 -.00000038  00000-0  00000-0 0  9998
2 28378   0.0146 316.4455 0000084 317.2311 125.4298  1.00272036 21194
AMC-15                  
1 28446U 04041A   20358.43764038 -.00000076  00000-0  00000-0 0  9990
2 28446   0.0255  45.4330 0002942 221.9784 237.5161  1.00271669 59255
AMC-16                  
1 28472U 04048A   20358.42965998 -.00000193  00000-0  00000-0 0  9993
2 28472   0.0254 319.4836 0002904 307.8764 254.7380  1.00271669 58655
NSS-10 (AMC-12)         
1 28526U 05003A   20358.51507878 -.00000238  00000-0  00000-0 0  9994
2 28526   1.4678  92.7998 0003121 167.6086 340.0749  1.00272660 33081
XTAR-EUR                
1 28542U 05005A   20357.66473888  .00000161  00000-0  00000+0 0  9995
2 28542   0.0164  30.1069 0002101 241.7440  88.1245  1.00271043 58109
XM-3 (RHYTHM)           
1 28626U 05008A   20358.42965998 -.00000193  00000-0  00000-0 0  9991
2 28626   0.0183   9.7190 0000103  50.8842 101.3853  1.00269581 22552
INMARSAT 4-F1           
1 28628U 05009A   20358.44263097 -.00000250  00000-0  00000-0 0  9991
2 28628   3.2700  29.1370 0002784 241.9268 124.2090  1.00271860 57606
APSTAR 6                
1 28638U 05012A   20358.32410347 -.00000009  00000-0  00000-0 0  9997
2 28638   2.2619  91.9031 0010556 237.5185 277.9956  0.98571117 82307
DIRECTV 8               
1 28659U 05019A   20358.41132275  .00000014  00000-0  00000-0 0  9993
2 28659   0.0148 310.7940 0002985 322.7611 207.8739  1.00271468 57057
GALAXY 28 (G-28)        
1 28702U 05022A   20358.43521432 -.00000173  00000-0  00000-0 0  9992
2 28702   0.0140  78.7757 0001567 234.6312 206.7034  1.00272254 31961
EXPRESS-AM3             
1 28707U 05023A   20358.65668053  .00000014  00000-0  00000-0 0  9996
2 28707   2.2744  88.2146 0001774 236.0427  80.0680  0.99818964 56767
THAICOM 4               
1 28786U 05028A   20357.79187918 -.00000353  00000-0  00000-0 0  9995
2 28786   0.0163   4.3815 0002635 262.1495 229.8443  1.00270087 32191
GALAXY 14 (G-14)        
1 28790U 05030A   20358.41232876  .00000049  00000-0  00000-0 0  9998
2 28790   0.0317 312.7714 0002555 315.4658 207.6044  1.00271449 56241
ANIK F1R                
1 28868U 05036A   20358.43571377 -.00000061  00000-0  00000-0 0  9999
2 28868   0.0193  41.6453 0001608 276.9596 183.3726  1.00271891 26387
GALAXY 15 (G-15)        
1 28884U 05041A   20358.41843219  .00000091  00000-0  00000-0 0  9990
2 28884   0.0204 307.3994 0001749 323.0688 199.5828  1.00273260 55603
SYRACUSE 3A             
1 28885U 05041B   20358.32410347  .00000141  00000-0  00000-0 0  9999
2 28885   0.0401 306.5920 0003012 321.5316 347.8348  1.00269717 55673
INMARSAT 4-F2           
1 28899U 05044A   20358.42675400  .00000021  00000-0  00000-0 0  9998
2 28899   3.1319  31.8369 0002926 240.0086  38.1021  1.00271952 55444
TELKOM 2                
1 28902U 05046A   20358.45311428 -.00000126  00000-0  00000-0 0  9992
2 28902   0.0302  85.1279 0001513 316.1260  11.3264  1.00271134 55364
SPACEWAY 2              
1 28903U 05046B   20358.41372155  .00000116  00000-0  00000-0 0  9991
2 28903   0.6346  92.8833 0000130 220.3772 149.1847  1.00272316 31272
METEOSAT-9 (MSG-2)      
1 28912U 05049B   20358.25400692  .00000026  00000-0  00000-0 0  9994
2 28912   4.8300  69.3150 0001011 230.4385 247.3642  1.00267574 54965
EUTELSAT 174A           
1 28924U 05052A   20358.46425781  .00000023  00000-0  00000-0 0  9997
2 28924   0.0605 359.7708 0006124 270.6779 163.1447  1.00273600 32266
ECHOSTAR 10             
1 28935U 06003A   20358.43367907 -.00000043  00000-0  00000-0 0  9991
2 28935   0.0255 318.6168 0001546 284.9422 254.8105  1.00272731 54402
